[{"OBJECT_NAME":"COLIBRI-S (RS67S)","OBJECT_ID":"2024-199M","EPOCH":"2026-03-03T17:15:53.053920","MEAN_MOTION":15.43113643,"ECCENTRICITY":0.0008036,"INCLINATION":97.3169,"RA_OF_ASC_NODE":295.853,"ARG_OF_PERICENTER":311.7377,"MEAN_ANOMALY":48.3183,"EPHEMERIS_TYPE":0,"CLASSIFICATION_TYPE":"U","NORAD_CAT_ID":61746,"ELEMENT_SET_NO":999,"REV_AT_EPOCH":12112,"BSTAR":0.00065031,"MEAN_MOTION_DOT":0.00028782,"MEAN_MOTION_DDOT":0},{"OBJECT_NAME":"HORS 3 (RS81S)","OBJECT_ID":"2024-199U","EPOCH":"2026-03-03T19:53:59.607168","MEAN_MOTION":15.4789674,"ECCENTRICITY":0.0006158,"INCLINATION":97.3138,"RA_OF_ASC_NODE":297.0288,"ARG_OF_PERICENTER":318.9853,"MEAN_ANOMALY":41.0934,"EPHEMERIS_TYPE":0,"CLASSIFICATION_TYPE":"U","NORAD_CAT_ID":61753,"ELEMENT_SET_NO":999,"REV_AT_EPOCH":12122,"BSTAR":0.00082576,"MEAN_MOTION_DOT":0.0004311,"MEAN_MOTION_DDOT":0},{"OBJECT_NAME":"HORS 4 (RS82S)","OBJECT_ID":"2024-199V","EPOCH":"2026-03-03T20:13:47.135424","MEAN_MOTION":15.50613049,"ECCENTRICITY":0.0005868,"INCLINATION":97.3116,"RA_OF_ASC_NODE":297.7171,"ARG_OF_PERICENTER":315.9996,"MEAN_ANOMALY":44.0788,"EPHEMERIS_TYPE":0,"CLASSIFICATION_TYPE":"U","NORAD_CAT_ID":61754,"ELEMENT_SET_NO":999,"REV_AT_EPOCH":12127,"BSTAR":0.00086563,"MEAN_MOTION_DOT":0.00049745,"MEAN_MOTION_DDOT":0},{"OBJECT_NAME":"HORIZON (RS59S)","OBJECT_ID":"2024-199Y","EPOCH":"2026-03-03T18:03:40.388256","MEAN_MOTION":15.68394641,"ECCENTRICITY":0.0003198,"INCLINATION":97.3086,"RA_OF_ASC_NODE":301.2985,"ARG_OF_PERICENTER":290.7323,"MEAN_ANOMALY":69.3595,"EPHEMERIS_TYPE":0,"CLASSIFICATION_TYPE":"U","NORAD_CAT_ID":61757,"ELEMENT_SET_NO":999,"REV_AT_EPOCH":12149,"BSTAR":0.0013627,"MEAN_MOTION_DOT":0.0015561,"MEAN_MOTION_DDOT":0},{"OBJECT_NAME":"ARCTICSAT 1 (RS74S)","OBJECT_ID":"2024-199AD","EPOCH":"2026-03-03T19:31:05.748672","MEAN_MOTION":15.64360183,"ECCENTRICITY":0.0003577,"INCLINATION":97.3103,"RA_OF_ASC_NODE":300.9207,"ARG_OF_PERICENTER":287.2904,"MEAN_ANOMALY":72.7964,"EPHEMERIS_TYPE":0,"CLASSIFICATION_TYPE":"U","NORAD_CAT_ID":61762,"ELEMENT_SET_NO":999,"REV_AT_EPOCH":12147,"BSTAR":0.0012574,"MEAN_MOTION_DOT":0.0012169,"MEAN_MOTION_DDOT":0},{"OBJECT_NAME":"SIT-2086","OBJECT_ID":"2024-199AF","EPOCH":"2026-03-03T18:32:58.203168","MEAN_MOTION":15.47291085,"ECCENTRICITY":0.0006306,"INCLINATION":97.3134,"RA_OF_ASC_NODE":297.7092,"ARG_OF_PERICENTER":298.2653,"MEAN_ANOMALY":61.7961,"EPHEMERIS_TYPE":0,"CLASSIFICATION_TYPE":"U","NORAD_CAT_ID":61764,"ELEMENT_SET_NO":999,"REV_AT_EPOCH":11810,"BSTAR":0.00060405,"MEAN_MOTION_DOT":0.0003081,"MEAN_MOTION_DDOT":0},{"OBJECT_NAME":"RUZAEVKA 390 (RS44S)","OBJECT_ID":"2024-199AH","EPOCH":"2026-03-03T18:02:16.334016","MEAN_MOTION":16.02417658,"ECCENTRICITY":0.0001789,"INCLINATION":97.2864,"RA_OF_ASC_NODE":304.6278,"ARG_OF_PERICENTER":161.1754,"MEAN_ANOMALY":198.9592,"EPHEMERIS_TYPE":0,"CLASSIFICATION_TYPE":"U","NORAD_CAT_ID":61766,"ELEMENT_SET_NO":999,"REV_AT_EPOCH":11857,"BSTAR":0.0018034,"MEAN_MOTION_DOT":0.01040673,"MEAN_MOTION_DDOT":0.00056408},{"OBJECT_NAME":"HYPERVIEW 1G (RS66S)","OBJECT_ID":"2024-199AP","EPOCH":"2026-03-03T18:45:31.091040","MEAN_MOTION":15.5703725,"ECCENTRICITY":0.0007033,"INCLINATION":97.3099,"RA_OF_ASC_NODE":298.7037,"ARG_OF_PERICENTER":312.7166,"MEAN_ANOMALY":47.3497,"EPHEMERIS_TYPE":0,"CLASSIFICATION_TYPE":"U","NORAD_CAT_ID":61772,"ELEMENT_SET_NO":999,"REV_AT_EPOCH":11818,"BSTAR":0.0011214,"MEAN_MOTION_DOT":0.00081707,"MEAN_MOTION_DDOT":0},{"OBJECT_NAME":"ALTAIR (RS65S)","OBJECT_ID":"2024-199AW","EPOCH":"2026-03-03T20:01:24.657024","MEAN_MOTION":15.34842795,"ECCENTRICITY":0.0012628,"INCLINATION":97.3191,"RA_OF_ASC_NODE":292.9376,"ARG_OF_PERICENTER":331.2133,"MEAN_ANOMALY":28.8412,"EPHEMERIS_TYPE":0,"CLASSIFICATION_TYPE":"U","NORAD_CAT_ID":61779,"ELEMENT_SET_NO":999,"REV_AT_EPOCH":12094,"BSTAR":0.00048227,"MEAN_MOTION_DOT":0.0001627,"MEAN_MOTION_DDOT":0},{"OBJECT_NAME":"ASRTU-1 (AO-123)","OBJECT_ID":"2024-199AY","EPOCH":"2026-03-03T19:26:58.573824","MEAN_MOTION":15.33918148,"ECCENTRICITY":0.0013375,"INCLINATION":97.3164,"RA_OF_ASC_NODE":292.4513,"ARG_OF_PERICENTER":333.1335,"MEAN_ANOMALY":26.9214,"EPHEMERIS_TYPE":0,"CLASSIFICATION_TYPE":"U","NORAD_CAT_ID":61781,"ELEMENT_SET_NO":999,"REV_AT_EPOCH":11776,"BSTAR":0.0003811,"MEAN_MOTION_DOT":0.00012466,"MEAN_MOTION_DDOT":0},{"OBJECT_NAME":"TUSUR GO (RS78S)","OBJECT_ID":"2024-199AZ","EPOCH":"2026-03-03T19:56:47.719968","MEAN_MOTION":15.68808561,"ECCENTRICITY":0.0004272,"INCLINATION":97.3043,"RA_OF_ASC_NODE":300.3903,"ARG_OF_PERICENTER":309.8947,"MEAN_ANOMALY":50.1939,"EPHEMERIS_TYPE":0,"CLASSIFICATION_TYPE":"U","NORAD_CAT_ID":61782,"ELEMENT_SET_NO":999,"REV_AT_EPOCH":11830,"BSTAR":0.0015058,"MEAN_MOTION_DOT":0.00175333,"MEAN_MOTION_DDOT":0},{"OBJECT_NAME":"SAMSAT-IONOSPHERE (RS75S)","OBJECT_ID":"2024-199BB","EPOCH":"2026-03-03T17:28:56.136000","MEAN_MOTION":15.48973575,"ECCENTRICITY":0.0009179,"INCLINATION":97.3127,"RA_OF_ASC_NODE":296.7107,"ARG_OF_PERICENTER":319.4715,"MEAN_ANOMALY":40.5851,"EPHEMERIS_TYPE":0,"CLASSIFICATION_TYPE":"U","NORAD_CAT_ID":61784,"ELEMENT_SET_NO":999,"REV_AT_EPOCH":12119,"BSTAR":0.00090239,"MEAN_MOTION_DOT":0.00048999,"MEAN_MOTION_DDOT":0},{"OBJECT_NAME":"RTU MIREA 1 (RS51S)","OBJECT_ID":"2024-199BC","EPOCH":"2026-03-03T19:09:17.555904","MEAN_MOTION":15.50827475,"ECCENTRICITY":0.0008909,"INCLINATION":97.3126,"RA_OF_ASC_NODE":297.209,"ARG_OF_PERICENTER":315.034,"MEAN_ANOMALY":45.019,"EPHEMERIS_TYPE":0,"CLASSIFICATION_TYPE":"U","NORAD_CAT_ID":61785,"ELEMENT_SET_NO":999,"REV_AT_EPOCH":11808,"BSTAR":0.00097546,"MEAN_MOTION_DOT":0.00056595,"MEAN_MOTION_DDOT":0},{"OBJECT_NAME":"TEVEL2-4","OBJECT_ID":"2025-052D","EPOCH":"2026-03-03T16:19:34.398336","MEAN_MOTION":15.30614446,"ECCENTRICITY":0.0004493,"INCLINATION":97.4034,"RA_OF_ASC_NODE":319.1254,"ARG_OF_PERICENTER":106.769,"MEAN_ANOMALY":253.4044,"EPHEMERIS_TYPE":0,"CLASSIFICATION_TYPE":"U","NORAD_CAT_ID":63213,"ELEMENT_SET_NO":999,"REV_AT_EPOCH":5395,"BSTAR":0.00089277,"MEAN_MOTION_DOT":0.00026415,"MEAN_MOTION_DDOT":0},{"OBJECT_NAME":"TEVEL2-5","OBJECT_ID":"2025-052E","EPOCH":"2026-03-03T16:34:40.641888","MEAN_MOTION":15.3049894,"ECCENTRICITY":0.0004486,"INCLINATION":97.4034,"RA_OF_ASC_NODE":319.11,"ARG_OF_PERICENTER":106.2473,"MEAN_ANOMALY":253.9261,"EPHEMERIS_TYPE":0,"CLASSIFICATION_TYPE":"U","NORAD_CAT_ID":63214,"ELEMENT_SET_NO":999,"REV_AT_EPOCH":5395,"BSTAR":0.0008922,"MEAN_MOTION_DOT":0.00026304,"MEAN_MOTION_DDOT":0},{"OBJECT_NAME":"TEVEL2-6","OBJECT_ID":"2025-052F","EPOCH":"2026-03-03T15:14:26.597184","MEAN_MOTION":15.30454463,"ECCENTRICITY":0.0004591,"INCLINATION":97.4037,"RA_OF_ASC_NODE":319.0398,"ARG_OF_PERICENTER":107.8577,"MEAN_ANOMALY":252.3165,"EPHEMERIS_TYPE":0,"CLASSIFICATION_TYPE":"U","NORAD_CAT_ID":63215,"ELEMENT_SET_NO":999,"REV_AT_EPOCH":5394,"BSTAR":0.00090006,"MEAN_MOTION_DOT":0.00026501,"MEAN_MOTION_DDOT":0}]
