COLIBRI-S (RS67S)       
1 61746U 24199M   26062.71936405  .00028782  00000+0  65031-3 0  9994
2 61746  97.3169 295.8530 0008036 311.7377  48.3183 15.43113643121124
HORS 3 (RS81S)          
1 61753U 24199U   26062.82916212  .00043110  00000+0  82576-3 0  9993
2 61753  97.3138 297.0288 0006158 318.9853  41.0934 15.47896740121228
HORS 4 (RS82S)          
1 61754U 24199V   26062.84290666  .00049745  00000+0  86563-3 0  9994
2 61754  97.3116 297.7171 0005868 315.9996  44.0788 15.50613049121273
HORIZON (RS59S)         
1 61757U 24199Y   26062.75255079  .00155610  00000+0  13627-2 0  9995
2 61757  97.3086 301.2985 0003198 290.7323  69.3595 15.68394641121497
ARCTICSAT 1 (RS74S)     
1 61762U 24199AD  26062.81326098  .00121690  00000+0  12574-2 0  9999
2 61762  97.3103 300.9207 0003577 287.2904  72.7964 15.64360183121479
SIT-2086                
1 61764U 24199AF  26062.77289587  .00030810  00000+0  60405-3 0  9997
2 61764  97.3134 297.7092 0006306 298.2653  61.7961 15.47291085118102
RUZAEVKA 390 (RS44S)    
1 61766U 24199AH  26062.75157794  .01040673  56408-3  18034-2 0  9997
2 61766  97.2864 304.6278 0001789 161.1754 198.9592 16.02417658118579
HYPERVIEW 1G (RS66S)    
1 61772U 24199AP  26062.78160985  .00081707  00000+0  11214-2 0  9991
2 61772  97.3099 298.7037 0007033 312.7166  47.3497 15.57037250118185
ALTAIR (RS65S)          
1 61779U 24199AW  26062.83431316  .00016270  00000+0  48227-3 0  9991
2 61779  97.3191 292.9376 0012628 331.2133  28.8412 15.34842795120944
ASRTU-1 (AO-123)        
1 61781U 24199AY  26062.81040016  .00012466  00000+0  38110-3 0  9998
2 61781  97.3164 292.4513 0013375 333.1335  26.9214 15.33918148117760
TUSUR GO (RS78S)        
1 61782U 24199AZ  26062.83110787  .00175333  00000+0  15058-2 0  9992
2 61782  97.3043 300.3903 0004272 309.8947  50.1939 15.68808561118303
SAMSAT-IONOSPHERE (RS7*)
1 61784U 24199BB  26062.72842750  .00048999  00000+0  90239-3 0  9996
2 61784  97.3127 296.7107 0009179 319.4715  40.5851 15.48973575121196
RTU MIREA 1 (RS51S)     
1 61785U 24199BC  26062.79811986  .00056595  00000+0  97546-3 0  9990
2 61785  97.3126 297.2090 0008909 315.0340  45.0190 15.50827475118089
TEVEL2-4                
1 63213U 25052D   26062.68025924  .00026415  00000+0  89277-3 0  9994
2 63213  97.4034 319.1254 0004493 106.7690 253.4044 15.30614446 53956
TEVEL2-5                
1 63214U 25052E   26062.69074817  .00026304  00000+0  89220-3 0  9996
2 63214  97.4034 319.1100 0004486 106.2473 253.9261 15.30498940 53958
TEVEL2-6                
1 63215U 25052F   26062.63503006  .00026501  00000+0  90006-3 0  9991
2 63215  97.4037 319.0398 0004591 107.8577 252.3165 15.30454463 53946
